{"epoch":1784710044,"count":18256,"objects":[{"id":"38755","name":"SPOT 6","type":"PAYLOAD","l1":"1 38755U 12047A   26202.63618340  .00000359  00000-0  87106-4 0  9998","l2":"2 38755  98.2099 269.5388 0001132  92.8265 267.3064 14.58541618738073"},{"id":"40053","name":"SPOT 7","type":"PAYLOAD","l1":"1 40053U 14034A   26202.63122473  .00000516  00000-0  11448-3 0  9997","l2":"2 40053  98.0607 264.2324 0001667  94.9835 265.1556 14.60985245642168"}]}